O3B MPOWER F1           
1 54755U 22174A   24130.26365532 -.00000023  00000+0  00000+0 0  9998
2 54755   0.0645   0.8432 0006762  51.5695 129.0227  5.00114555 26896
